$$SOE
2460154.500000000, A.D. 2023-Jul-29 00:00:00.0000, -2.905826816234449E+08, 3.246918162586453E+08, 1.967708997282910E+07,
2460161.500000000, A.D. 2023-Aug-05 00:00:00.0000, -2.986635263786740E+08, 3.193682641553484E+08, 1.773377643014602E+07,
2460168.500000000, A.D. 2023-Aug-12 00:00:00.0000, -3.065714177440428E+08, 3.138596984210935E+08, 1.578018977779797E+07,
2460175.500000000, A.D. 2023-Aug-19 00:00:00.0000, -3.143034779055580E+08, 3.081710488757433E+08, 1.381754941918300E+07,
2460182.500000000, A.D. 2023-Aug-26 00:00:00.0000, -3.218569494331075E+08, 3.023072205095845E+08, 1.184705525885849E+07,
2460189.500000000, A.D. 2023-Sep-02 00:00:00.0000, -3.292291906248804E+08, 2.962730929225932E+08, 9.869888193380430E+06,
2460196.500000000, A.D. 2023-Sep-09 00:00:00.0000, -3.364176710294950E+08, 2.900735198289596E+08, 7.887210597495630E+06,
2460203.500000000, A.D. 2023-Sep-16 00:00:00.0000, -3.434199669737275E+08, 2.837133285551007E+08, 5.900166783655807E+06,
2460210.500000000, A.D. 2023-Sep-23 00:00:00.0000, -3.502337566754594E+08, 2.771973198049541E+08, 3.909883418481439E+06,
2460217.500000000, A.D. 2023-Sep-30 00:00:00.0000, -3.568568152777598E+08, 2.705302688710546E+08, 1.917470023214251E+06,
2460224.500000000, A.D. 2023-Oct-07 00:00:00.0000, -3.632870121552703E+08, 2.637169277382589E+08, -7.598027166205645E+04,
2460231.500000000, A.D. 2023-Oct-14 00:00:00.0000, -3.695223094488539E+08, 2.567620247586265E+08, -2.069390084969789E+06,
2460238.500000000, A.D. 2023-Oct-21 00:00:00.0000, -3.755607585929399E+08, 2.496702634897656E+08, -4.061697422397017E+06,
2460245.500000000, A.D. 2023-Oct-28 00:00:00.0000, -3.814004962560722E+08, 2.424463229458223E+08, -6.051855278314054E+06,
2460252.500000000, A.D. 2023-Nov-04 00:00:00.0000, -3.870397409428992E+08, 2.350948584833921E+08, -8.038831150956169E+06,
2460259.500000000, A.D. 2023-Nov-11 00:00:00.0000, -3.924767900765717E+08, 2.276205027163523E+08, -1.002160653694063E+07,
2460266.500000000, A.D. 2023-Nov-18 00:00:00.0000, -3.977100173379357E+08, 2.200278663889177E+08, -1.199917643100135E+07,
2460273.500000000, A.D. 2023-Nov-25 00:00:00.0000, -4.027378701847871E+08, 2.123215392235357E+08, -1.397054883624586E+07,
2460280.500000000, A.D. 2023-Dec-02 00:00:00.0000, -4.075588675189608E+08, 2.045060907272471E+08, -1.593474428889329E+07,
2460287.500000000, A.D. 2023-Dec-09 00:00:00.0000, -4.121715974187113E+08, 1.965860708928828E+08, -1.789079540981560E+07,
2460294.500000000, A.D. 2023-Dec-16 00:00:00.0000, -4.165747146433168E+08, 1.885660108027076E+08, -1.983774650840064E+07,
2460301.500000000, A.D. 2023-Dec-23 00:00:00.0000, -4.207669375558474E+08, 1.804504238160928E+08, -2.177465321448528E+07,
2460308.500000000, A.D. 2023-Dec-30 00:00:00.0000, -4.247470458005280E+08, 1.722438083839102E+08, -2.370058192970807E+07,
2460315.500000000, A.D. 2024-Jan-06 00:00:00.0000, -4.285138805066640E+08, 1.639506501238300E+08, -2.561460912916820E+07,
2460322.500000000, A.D. 2024-Jan-13 00:00:00.0000, -4.320663438458369E+08, 1.555754213472819E+08, -2.751582095281079E+07,
2460329.500000000, A.D. 2024-Jan-20 00:00:00.0000, -4.354033967157901E+08, 1.471225811200146E+08, -2.940331294707135E+07,
2460336.500000000, A.D. 2024-Jan-27 00:00:00.0000, -4.385240565781682E+08, 1.385965765052455E+08, -3.127618971804245E+07,
2460343.500000000, A.D. 2024-Feb-03 00:00:00.0000, -4.414273958779383E+08, 1.300018440393217E+08, -3.313356453531669E+07,
2460350.500000000, A.D. 2024-Feb-10 00:00:00.0000, -4.441125407651246E+08, 1.213428111478468E+08, -3.497455893635093E+07,
2460357.500000000, A.D. 2024-Feb-17 00:00:00.0000, -4.465786699772950E+08, 1.126238975086305E+08, -3.679830234372150E+07,
2460364.500000000, A.D. 2024-Feb-24 00:00:00.0000, -4.488250138440968E+08, 1.038495163743329E+08, -3.860393169753456E+07,
2460371.500000000, A.D. 2024-Mar-02 00:00:00.0000, -4.508508533819658E+08, 9.502407582035910E+07, -4.039059110843982E+07,
2460378.500000000, A.D. 2024-Mar-09 00:00:00.0000, -4.526555193378168E+08, 8.615197985324734E+07, -4.215743154912849E+07,
2460385.500000000, A.D. 2024-Mar-16 00:00:00.0000, -4.542383907841139E+08, 7.723762957477731E+07, -4.390361060435055E+07,
2460392.500000000, A.D. 2024-Mar-23 00:00:00.0000, -4.555988933668886E+08, 6.828542550841729E+07, -4.562829217915847E+07,
2460399.500000000, A.D. 2024-Mar-30 00:00:00.0000, -4.567364994471812E+08, 5.929977105848388E+07, -4.733064596206169E+07,
2460406.500000000, A.D. 2024-Apr-06 00:00:00.0000, -4.576507298813269E+08, 5.028507373246973E+07, -4.900984694232938E+07,
2460413.500000000, A.D. 2024-Apr-13 00:00:00.0000, -4.583411538895282E+08, 4.124574496271916E+07, -5.066507523911797E+07,
2460420.500000000, A.D. 2024-Apr-20 00:00:00.0000, -4.588073879634138E+08, 3.218620120302941E+07, -5.229551593611818E+07,
2460427.500000000, A.D. 2024-Apr-27 00:00:00.0000, -4.590490953297327E+08, 2.311086573662062E+07, -5.390035882864164E+07,
2460434.500000000, A.D. 2024-May-04 00:00:00.0000, -4.590659858840289E+08, 1.402417049095516E+07, -5.547879814931765E+07,
2460441.500000000, A.D. 2024-May-11 00:00:00.0000, -4.588578163572295E+08, 4.930557757417612E+06, -5.703003230301906E+07,
2460448.500000000, A.D. 2024-May-18 00:00:00.0000, -4.584243906337479E+08, -4.165518162811045E+06, -5.855326361693327E+07,
2460455.500000000, A.D. 2024-May-25 00:00:00.0000, -4.577655601969087E+08, -1.325958939445350E+07, -6.004769810869526E+07,
2460462.500000000, A.D. 2024-Jun-01 00:00:00.0000, -4.568812246426374E+08, -2.234717306371924E+07, -6.151254528283077E+07,
2460469.500000000, A.D. 2024-Jun-08 00:00:00.0000, -4.557713320161113E+08, -3.142377003772351E+07, -6.294701798005291E+07,
2460476.500000000, A.D. 2024-Jun-15 00:00:00.0000, -4.544358785729793E+08, -4.048486328377836E+07, -6.435033227155317E+07,
2460483.500000000, A.D. 2024-Jun-22 00:00:00.0000, -4.528749089715218E+08, -4.952591467495744E+07, -6.572170721009228E+07,
2460490.500000000, A.D. 2024-Jun-29 00:00:00.0000, -4.510885190196059E+08, -5.854236206503294E+07, -6.706036439251210E+07,
2460497.500000000, A.D. 2024-Jul-06 00:00:00.0000, -4.490768583353969E+08, -6.752961910579737E+07, -6.836552777915199E+07,
2460504.500000000, A.D. 2024-Jul-13 00:00:00.0000, -4.468401309755304E+08, -7.648307498336546E+07, -6.963642371871343E+07,
2460511.500000000, A.D. 2024-Jul-20 00:00:00.0000, -4.443785960176935E+08, -8.539809292633432E+07, -7.087228090270275E+07,
2460518.500000000, A.D. 2024-Jul-27 00:00:00.0000, -4.416925687561258E+08, -9.427000844829512E+07, -7.207233026845022E+07,
2460525.500000000, A.D. 2024-Aug-03 00:00:00.0000, -4.387824222413653E+08, -1.030941277023917E+08, -7.323580490777804E+07,
2460532.500000000, A.D. 2024-Aug-10 00:00:00.0000, -4.356485890028206E+08, -1.118657259540581E+08, -7.436193999824415E+07,
2460539.500000000, A.D. 2024-Aug-17 00:00:00.0000, -4.322915629102501E+08, -1.205800461514196E+08, -7.544997276047251E+07,
2460546.500000000, A.D. 2024-Aug-24 00:00:00.0000, -4.287119011487464E+08, -1.292322976172303E+08, -7.649914244651115E+07,
2460553.500000000, A.D. 2024-Aug-31 00:00:00.0000, -4.249102261936210E+08, -1.378176549266587E+08, -7.750869037530923E+07,
2460560.500000000, A.D. 2024-Sep-07 00:00:00.0000, -4.208872274222710E+08, -1.463312568489000E+08, -7.847786003932266E+07,
2460567.500000000, A.D. 2024-Sep-14 00:00:00.0000, -4.166436622816141E+08, -1.547682043621687E+08, -7.940589721012726E+07,
2460574.500000000, A.D. 2024-Sep-21 00:00:00.0000, -4.121803590450285E+08, -1.631235573354250E+08, -8.029204982531221E+07,
2460581.500000000, A.D. 2024-Sep-28 00:00:00.0000, -4.074982216531074E+08, -1.713923331107937E+08, -8.113556787846130E+07,
2460588.500000000, A.D. 2024-Oct-05 00:00:00.0000, -4.025982329766494E+08, -1.795695069904552E+08, -8.193570365158281E+07,
2460595.500000000, A.D. 2024-Oct-12 00:00:00.0000, -3.974814568689231E+08, -1.876500116519960E+08, -8.269171201527727E+07,
2460602.500000000, A.D. 2024-Oct-19 00:00:00.0000, -3.921490407623193E+08, -1.956287357679226E+08, -8.340285065934190E+07,
2460609.500000000, A.D. 2024-Oct-26 00:00:00.0000, -3.866022188459283E+08, -2.035005226377126E+08, -8.406838031783386E+07,
2460616.500000000, A.D. 2024-Nov-02 00:00:00.0000, -3.808423155720243E+08, -2.112601689890602E+08, -8.468756502644557E+07,
2460623.500000000, A.D. 2024-Nov-09 00:00:00.0000, -3.748707494008816E+08, -2.189024239362550E+08, -8.525967242173062E+07,
2460630.500000000, A.D. 2024-Nov-16 00:00:00.0000, -3.686890367639981E+08, -2.264219881044548E+08, -8.578397408688927E+07,
2460637.500000000, A.D. 2024-Nov-23 00:00:00.0000, -3.622987962046016E+08, -2.338135129795566E+08, -8.625974595487861E+07,
2460644.500000000, A.D. 2024-Nov-30 00:00:00.0000, -3.557017524929184E+08, -2.410716005371015E+08, -8.668626879396008E+07,
2460651.500000000, A.D. 2024-Dec-07 00:00:00.0000, -3.488997403025315E+08, -2.481908027412814E+08, -8.706282878241438E+07,
2460658.500000000, A.D. 2024-Dec-14 00:00:00.0000, -3.418947081417855E+08, -2.551656197026009E+08, -8.738871801186685E+07,
2460665.500000000, A.D. 2024-Dec-21 00:00:00.0000, -3.346887248635105E+08, -2.619904977489831E+08, -8.766323481074427E+07,
2460672.500000000, A.D. 2024-Dec-28 00:00:00.0000, -3.272839867861300E+08, -2.686598303940898E+08, -8.788568431484719E+07,
2460679.500000000, A.D. 2025-Jan-04 00:00:00.0000, -3.196828228356158E+08, -2.751679598440880E+08, -8.805537933304648E+07,
2460686.500000000, A.D. 2025-Jan-11 00:00:00.0000, -3.118876995351249E+08, -2.815091774001894E+08, -8.817164120883656E+07,
2460693.500000000, A.D. 2025-Jan-18 00:00:00.0000, -3.039012267629465E+08, -2.876777236939989E+08, -8.823380067182638E+07,
2460700.500000000, A.D. 2025-Jan-25 00:00:00.0000, -2.957261640379484E+08, -2.936677892507958E+08, -8.824119874373567E+07,
2460707.500000000, A.D. 2025-Feb-01 00:00:00.0000, -2.873654271455584E+08, -2.994735154339212E+08, -8.819318772286473E+07,
2460714.500000000, A.D. 2025-Feb-08 00:00:00.0000, -2.788220950484070E+08, -3.050889957754458E+08, -8.808913225537871E+07,
$$EOE